# From MPEC 2021-P47
P/2021 N1 (ZTF),e,11.5044,301.1675,21.2046,2.977470,0.1918373,0.67669604,72.9868,06/22.0/2022,2000,g 19.0,4.0
# From MPEC 2022-GA9
P/2021 N2 (Fuls),e,13.0624,221.7415,177.3696,6.933561,0.0539846,0.45241093,11.9065,06/22.0/2022,2000,g  9.5,4.0
# From MPEC 2022-L66
C/2021 N3 (PANSTARRS),e,26.7450,337.4942,304.7276,158.6764,0.0004931,0.96399610,0.3310,06/22.0/2022,2000,g  8.5,4.0
# From MPEC 2022-A21
C/2021 O1 (Nishimura),e,27.5790,41.6091,74.4407,2498,0.0000079,0.99968505,0.0000,08/13.9326/2021,2000,g 10.5,4.0
# From MPEC 2022-L66
C/2021 O3 (PANSTARRS),h,04/21.0462/2022,56.7939,189.0186,299.9878,1.000103,0.287343,2000,10.5,4.0
# From MPEC 2022-CN4
C/2021 P1 (PANSTARRS),e,51.6364,359.6761,40.4285,3164,0.0000055,0.99861736,0.0000,06/02.1748/2022,2000,g 11.0,4.0
# From MPEC 2022-C56
C/2021 P2 (PANSTARRS),e,150.0576,32.0604,76.6178,4035,0.0000038,0.99874345,0.0000,01/22.2177/2023,2000,g  9.0,4.0
# From MPEC 2021-W31
P/2021 P3 (PANSTARRS),e,27.1616,358.2397,334.1232,4.414454,0.1062646,0.33951614,41.1795,06/22.0/2022,2000,g 14.0,4.0
# From MPEC 2022-M21
C/2021 P4 (ATLAS),e,56.3109,348.0944,175.8205,321.2987,0.0001711,0.99663723,0.0000,07/30.3693/2022,2000,g  9.5,4.0
# From MPEC 2022-GA9
C/2021 Q3 (ATLAS),e,77.7750,307.9045,114.0950,75.11228,0.0015140,0.93070926,0.2224,06/22.0/2022,2000,g  8.0,4.0
# From MPEC 2022-GA9
C/2021 Q4 (Fuls),h,06/09.6061/2023,71.4725,183.3344,146.9420,1.003332,7.565443,2000,6.0,4.0
# From MPEC 2022-C56
P/2021 Q5 (ATLAS),e,10.7347,239.7654,180.9026,3.286091,0.1654568,0.62434932,48.9009,06/22.0/2022,2000,g 15.0,4.0
# From MPEC 2022-C56
C/2021 Q6 (PANSTARRS),e,161.8473,133.5355,140.8549,7897,0.0000014,0.99889667,0.0000,03/22.2823/2024,2000,g  6.0,4.0
# From MPEC 2021-W31
P/2021 R1 (PANSTARRS),e,5.5203,143.3942,220.3511,8.385172,0.0405916,0.41730955,7.5618,06/22.0/2022,2000,g 11.0,4.0
# From MPEC 2022-L66
C/2021 R2 (PANSTARRS),e,134.4787,16.2916,32.3546,2652,0.0000072,0.99724230,0.0000,12/25.7045/2021,2000,g  7.5,4.0
# From MPEC 2021-W31
P/2021 R3 (PANSTARRS),e,19.9265,304.2181,2.8660,3.775110,0.1343722,0.33138337,52.6070,06/22.0/2022,2000,g 16.0,4.0
# From MPEC 2021-W31
P/2021 R4 (Wierzchos),e,21.0399,321.2562,56.6413,5.618153,0.0740140,0.58595499,18.5803,06/22.0/2022,2000,g 16.0,4.0
# From MPEC 2022-CN4
P/2021 R5 (Rankin),e,7.8546,219.9595,167.3810,4.793821,0.0939034,0.30686827,15.0997,06/22.0/2022,2000,g 12.0,4.0
# From MPEC 2021-W31
P/2021 R6 (Groeller),e,34.9270,176.1140,220.7412,6.274074,0.0627162,0.59320200,14.6175,06/22.0/2022,2000,g 14.5,4.0
# From MPEC 2022-L66
C/2021 R7 (PANSTARRS),e,158.8516,170.1435,140.2394,1314,0.0000207,0.99570021,0.0000,04/16.6417/2021,2000,g 10.5,4.0
# From MPEC 2021-Y10
P/2021 R8 (Sheppard),e,2.2034,167.0284,190.7680,3.016941,0.1880849,0.29362866,48.4438,06/22.0/2022,2000,g 18.5,4.0
# From MPEC 2022-L66
C/2021 S1 (ATLAS),h,02/28.8603/2022,52.0860,299.8755,148.1792,1.001188,6.119200,2000,7.0,4.0
# From MPEC 2022-J42
C/2021 S3 (PANSTARRS),e,58.5376,215.6327,6.9019,6036,0.0000021,0.99978147,0.0000,02/14.8176/2024,2000,g  5.5,4.0
# From MPEC 2022-ED3
C/2021 S4 (Tsuchinshan),e,17.4775,5.4944,72.7414,163.5490,0.0004712,0.95908095,359.7371,06/22.0/2022,2000,g  6.5,4.0
# From MPEC 2022-GA9
C/2021 T1 (Lemmon),e,140.3513,56.8344,51.5174,1272,0.0000217,0.99759544,0.0000,10/14.0579/2021,2000,g 12.5,4.0
# From MPEC 2022-ED3
C/2021 T2 (Fuls),h,06/07.8915/2022,117.5301,223.2323,263.5920,1.000202,1.247700,2000,12.0,4.0
# From MPEC 2022-ED3
C/2021 T4 (Lemmon),e,160.7549,257.7951,329.7839,15030,0.0000005,0.99990141,0.0000,07/31.5162/2023,2000,g  7.5,4.0
# From MPEC 2022-ED3
P/2021 U1 (Wierzchos),e,30.5587,246.7879,145.0597,8.514096,0.0396731,0.71280949,10.4730,06/22.0/2022,2000,g 14.5,4.0
# From MPEC 2022-L66
P/2021 U3 (Attard-Maury),e,69.9601,75.1108,335.2156,4.191939,0.1148370,0.54988375,27.5761,06/22.0/2022,2000,g 15.5,4.0
# From MPEC 2021-W31
C/2021 U4 (Leonard),e,152.8771,241.8132,237.2774,44.69425,0.0032986,0.96000920,0.6006,06/22.0/2022,2000,g 17.0,4.0
# From MPEC 2022-M21
C/2021 U5 (Catalina),e,39.0505,182.7550,321.4658,217.1100,0.0003081,0.98911511,0.0000,01/26.5990/2022,2000,g 13.0,4.0
# From MPEC 2022-CN4
C/2021 V1 (Rankin),e,71.4526,207.6527,195.1132,644.9231,0.0000602,0.99532745,0.0000,04/30.3943/2022,2000,g 13.0,4.0
# From MPEC 2022-HC2
P/2021 V2 (Fuls),e,12.6946,232.2896,259.8297,9.045158,0.0362310,0.61342890,352.2660,06/22.0/2022,2000,g 10.0,4.0
# From MPEC 2022-J42
C/2021 X1 (Maury-Attard),e,140.1213,10.5833,334.6102,310168,0.0000000,0.99998957,0.0000,05/27.4308/2023,2000,g  7.0,4.0
# From MPEC 2022-ED3
A/2021 X2,h,07/08.1593/2022,137.1437,228.7983,193.2851,1.001299,2.994511,2000,16.0,2.0
# From MPEC 2022-L66
C/2021 Y1 (ATLAS),h,04/30.7086/2023,77.1856,244.7704,245.8074,1.000715,2.032679,2000,7.0,4.0
# From MPEC 2022-ED3
C/2022 A1 (Sarneczky),e,116.5214,285.5230,201.1967,820.7766,0.0000419,0.99847354,0.0000,01/31.1530/2022,2000,g 18.0,4.0
# From MPEC 2022-M21
C/2022 A2 (PANSTARRS),h,02/18.2476/2023,108.1486,171.5801,88.3608,1.000564,1.735318,2000,9.5,4.0
# From MPEC 2022-K19
C/2022 A3 (Lemmon-ATLAS),e,88.3574,325.4832,234.8541,988.6640,0.0000317,0.99625452,0.0000,09/28.8270/2023,2000,g  8.0,4.0
# From MPEC 2022-K19
P/2022 B1 (Wierzchos),e,10.9908,148.8500,325.4787,5.464783,0.0771515,0.65292729,9.0009,06/22.0/2022,2000,g 16.5,4.0
# From MPEC 2022-K19
A/2022 B3,e,132.0565,286.1858,150.6962,930.1794,0.0000347,0.99602406,0.0000,01/17.6379/2022,2000,g 16.5,2.0
# From MPEC 2022-GA9
C/2022 B4 (Bok),e,20.0442,340.6615,152.9513,387.4217,0.0001292,0.99643900,0.0000,01/29.8916/2022,2000,g 21.0,4.0
# From MPEC 2022-H04
P/2022 C1 (PANSTARRS),e,4.7620,113.1462,9.3633,7.216710,0.0508388,0.44774759,11.6677,06/22.0/2022,2000,g 12.0,4.0
# From MPEC 2022-M21
P/2022 C2 (PANSTARRS),e,9.9799,135.2746,89.2990,6.047774,0.0662690,0.44268519,356.9784,06/22.0/2022,2000,g 12.5,4.0
# From MPEC 2022-L66
P/2022 C3 (PANSTARRS),e,12.8158,139.0593,93.9509,9.652250,0.0328671,0.54679309,359.6934,06/22.0/2022,2000,g 11.5,4.0
# From MPEC 2022-K19
P/2022 D1 (PANSTARRS),e,44.0665,47.9623,88.7060,7.400949,0.0489523,0.54702948,14.5856,06/22.0/2022,2000,g 12.5,4.0
# From MPEC 2022-K19
C/2022 D2 (Kowalski),e,22.6545,312.4691,177.7895,366.7526,0.0001403,0.99575970,0.0000,03/27.5733/2022,2000,g 17.0,4.0
# From MPEC 2022-L66
P/2022 E1 (Christensen),e,19.0036,113.3487,115.0952,3.782109,0.1339995,0.22124063,1.5251,06/22.0/2022,2000,g 13.5,4.0
# From MPEC 2022-M21
C/2022 E2 (ATLAS),h,09/13.7417/2024,137.1459,125.3507,41.6663,1.001553,3.666532,2000,5.0,4.0
# From MPEC 2022-M21
C/2022 E3 (ZTF),h,01/12.7926/2023,109.1681,302.5535,145.8156,1.000238,1.112265,2000,7.5,4.0
# From MPEC 2022-L66
C/2022 F1 (ATLAS),h,08/05.3121/2022,57.9710,350.6530,278.2855,1.000250,5.973892,2000,7.0,4.0
# From MPEC 2022-L66
C/2022 F2 (NEOWISE),e,97.2936,58.6947,200.6292,23.92665,0.0084213,0.93375547,0.7625,06/22.0/2022,2000,g 14.5,4.0
# From MPEC 2022-J76
C/2022 H1 (PANSTARRS),e,49.8921,6.3818,246.2588,1129,0.0000260,0.99318653,0.0000,01/19.0214/2024,2000,g  6.0,4.0
# From MPEC 2022-M21
C/2022 J1 (Maury-Attard),e,105.9342,280.7242,305.6767,48.07510,0.0029568,0.96662594,0.3635,06/22.0/2022,2000,g 14.9,4.0
# From MPEC 2022-L66
A/2022 J2,e,149.0855,252.5196,133.2730,83.28436,0.0012968,0.97812052,0.0000,10/27.3387/2022,2000,g 17.0,2.0
# From MPEC 2022-M21
C/2022 K1 (Leonard),e,41.9822,136.2820,142.7779,1173,0.0000245,0.99660267,0.0000,12/17.9978/2021,2000,g 11.0,4.0
# From MPEC 2022-L97
C/2022 L1 (Catalina),h,09/27.4847/2022,123.5508,300.0710,59.4772,1.013843,1.595842,2000,15.8,4.0
# From MPEC 2022-M21
C/2022 L2 (ATLAS),h,03/10.5060/2024,129.3563,38.7779,198.2657,1.016770,2.749788,2000,6.5,4.0
# From  98, 1083
1P/Halley,e,162.2042,59.1404,112.0646,17.87172,0.0130453,0.96642469,173.1249,06/22.0/2022,2000,g  4.0,6.0
# From MPEC 2022-K19
2P/Encke,e,11.5019,334.3127,187.0119,2.219549,0.2980622,0.84851420,214.9869,06/22.0/2022,2000,g 11.5,6.0
# From MPEC 2022-L66
4P/Faye,e,8.0086,192.9265,207.0192,3.824978,0.1317531,0.57673533,37.6985,06/22.0/2022,2000,g  8.0,6.0
# From MPEC 2022-L66
6P/d'Arrest,e,19.5122,138.9335,178.0844,3.497004,0.1507162,0.61265405,41.7870,06/22.0/2022,2000,g  7.5,16.0
# From MPEC 2021-Y10
7P/Pons-Winnecke,e,22.3656,93.3452,172.5707,3.411789,0.1563978,0.63849026,61.1401,06/22.0/2022,2000,g 10.0,6.0
# From MPEC 2022-HC2
8P/Tuttle,e,54.9148,270.1989,207.4825,5.705061,0.0723292,0.82017703,21.5739,06/22.0/2022,2000,g  8.0,8.0
# From MPEC 2022-M21
9P/Tempel,e,10.4698,68.7130,179.3610,3.146275,0.1766075,0.50917098,19.2563,06/22.0/2022,2000,g  5.5,10.0
# From MPEC 2022-HC2
10P/Tempel,e,12.0386,117.8114,195.5090,3.061006,0.1840381,0.53838704,83.6965,06/22.0/2022,2000,g  5.0,10.0
# From MPEC 2022-K19
11P/Tempel-Swift-LINEAR,e,14.4240,238.8863,167.9708,3.283783,0.1656313,0.57729857,94.8439,06/22.0/2022,2000,g 17.0,4.0
# From MPEC 2022-M21
12P/Pons-Brooks,e,74.1665,255.8139,198.9811,17.16757,0.0138561,0.95446970,350.7270,06/22.0/2022,2000,g  5.0,6.0
# From  27, 604
13P/Olbers,e,44.6171,85.9418,64.3921,16.77627,0.0143437,0.92994638,349.3845,06/22.0/2022,2000,g  5.0,6.0
# From MPEC 2021-F20
14P/Wolf,e,27.9236,202.0423,159.0680,4.258207,0.1121667,0.35718692,186.3255,06/22.0/2022,2000,g  5.5,12.0
# From MPEC 2022-ED3
15P/Finlay,e,6.7980,13.7092,347.8482,3.507035,0.1500700,0.71706857,51.5505,06/22.0/2022,2000,g 12.0,4.0
# From MPEC 2022-C56
16P/Brooks,e,3.0117,138.8697,245.2156,3.657688,0.1408945,0.48641452,60.5353,06/22.0/2022,2000,g  7.5,10.0
# From MPEC 2022-ED3
17P/Holmes,e,19.0315,326.6230,24.5202,3.636676,0.1421174,0.42762073,69.2218,06/22.0/2022,2000,g 10.0,6.0
# From MPEC 2022-M21
19P/Borrelly,e,29.3041,74.2450,351.9198,3.605476,0.1439660,0.63769615,20.1800,06/22.0/2022,2000,g  4.5,10.0
# From MPEC 2021-F20
21P/Giacobini-Zinner,e,32.0547,195.3449,172.8764,3.495275,0.1508280,0.71120591,208.0820,06/22.0/2022,2000,g 11.4,4.0
# From MPEC 2022-M21
22P/Kopff,e,4.7420,120.8303,163.0310,3.441431,0.1543816,0.54890323,14.7984,06/22.0/2022,2000,g  3.0,10.4
# From MPC 14747
